CCSDS_OMM_VERS = 2.0
CREATION_DATE  = 
ORIGINATOR     = 

OBJECT_NAME    = UNKNOWN
OBJECT_ID      = 
CENTER_NAME    = EARTH
REF_FRAME      = TEME
TIME_SYSTEM    = UTC
MEAN_ELEMENT_THEORY = SGP/SGP4

EPOCH          = 2025-11-19T09:01:28.524576
MEAN_MOTION    = 12.96938194
ECCENTRICITY   = .00313657
INCLINATION    = 90.2339
RA_OF_ASC_NODE = 352.2914
ARG_OF_PERICENTER = 246.4232
MEAN_ANOMALY   = 113.3593

EPHEMERIS_TYPE = 0
CLASSIFICATION_TYPE = U
NORAD_CAT_ID   = 270325
ELEMENT_SET_NO = 999
REV_AT_EPOCH   = 23818
BSTAR          = .15737268E-2
MEAN_MOTION_DOT = .461E-5
MEAN_MOTION_DDOT = 0

CCSDS_OMM_VERS = 2.0
CREATION_DATE  = 
ORIGINATOR     = 

OBJECT_NAME    = UNKNOWN
OBJECT_ID      = 
CENTER_NAME    = EARTH
REF_FRAME      = TEME
TIME_SYSTEM    = UTC
MEAN_ELEMENT_THEORY = SGP/SGP4

EPOCH          = 2025-11-08T20:56:21.728544
MEAN_MOTION    = 13.01489365
ECCENTRICITY   = .00329605
INCLINATION    = 90.2382
RA_OF_ASC_NODE = 359.1197
ARG_OF_PERICENTER = 220.9918
MEAN_ANOMALY   = 138.8727

EPHEMERIS_TYPE = 0
CLASSIFICATION_TYPE = U
NORAD_CAT_ID   = 270326
ELEMENT_SET_NO = 999
REV_AT_EPOCH   = 26013
BSTAR          = .22382431E-2
MEAN_MOTION_DOT = .697E-5
MEAN_MOTION_DDOT = 0

CCSDS_OMM_VERS = 2.0
CREATION_DATE  = 
ORIGINATOR     = 

OBJECT_NAME    = UNKNOWN
OBJECT_ID      = 
CENTER_NAME    = EARTH
REF_FRAME      = TEME
TIME_SYSTEM    = UTC
MEAN_ELEMENT_THEORY = SGP/SGP4

EPOCH          = 2025-11-25T11:02:32.100864
MEAN_MOTION    = 12.95809807
ECCENTRICITY   = .0026793
INCLINATION    = 90.2897
RA_OF_ASC_NODE = 28.9315
ARG_OF_PERICENTER = 292.4444
MEAN_ANOMALY   = 67.3839

EPHEMERIS_TYPE = 0
CLASSIFICATION_TYPE = U
NORAD_CAT_ID   = 270327
ELEMENT_SET_NO = 999
REV_AT_EPOCH   = 23985
BSTAR          = .16503795E-2
MEAN_MOTION_DOT = .475E-5
MEAN_MOTION_DDOT = 0

CCSDS_OMM_VERS = 2.0
CREATION_DATE  = 
ORIGINATOR     = 

OBJECT_NAME    = UNKNOWN
OBJECT_ID      = 
CENTER_NAME    = EARTH
REF_FRAME      = TEME
TIME_SYSTEM    = UTC
MEAN_ELEMENT_THEORY = SGP/SGP4

EPOCH          = 2025-11-25T12:37:43.769856
MEAN_MOTION    = 12.95108712
ECCENTRICITY   = .0179736
INCLINATION    = 63.4596
RA_OF_ASC_NODE = 71.0185
ARG_OF_PERICENTER = 4.6442
MEAN_ANOMALY   = 355.6175

EPHEMERIS_TYPE = 0
CLASSIFICATION_TYPE = U
NORAD_CAT_ID   = 270328
ELEMENT_SET_NO = 999
REV_AT_EPOCH   = 26039
BSTAR          = .16099145E-2
MEAN_MOTION_DOT = .409E-5
MEAN_MOTION_DDOT = 0

CCSDS_OMM_VERS = 2.0
CREATION_DATE  = 
ORIGINATOR     = 

OBJECT_NAME    = UNKNOWN
OBJECT_ID      = 
CENTER_NAME    = EARTH
REF_FRAME      = TEME
TIME_SYSTEM    = UTC
MEAN_ELEMENT_THEORY = SGP/SGP4

EPOCH          = 2025-11-25T09:02:25.512288
MEAN_MOTION    = 14.36952346
ECCENTRICITY   = .0002399
INCLINATION    = 86.3979
RA_OF_ASC_NODE = 14.3862
ARG_OF_PERICENTER = 96.1703
MEAN_ANOMALY   = 263.9768

EPHEMERIS_TYPE = 0
CLASSIFICATION_TYPE = U
NORAD_CAT_ID   = 270329
ELEMENT_SET_NO = 999
REV_AT_EPOCH   = 25245
BSTAR          = .22551096E-3
MEAN_MOTION_DOT = .687E-5
MEAN_MOTION_DDOT = 0

CCSDS_OMM_VERS = 2.0
CREATION_DATE  = 
ORIGINATOR     = 

OBJECT_NAME    = UNKNOWN
OBJECT_ID      = 
CENTER_NAME    = EARTH
REF_FRAME      = TEME
TIME_SYSTEM    = UTC
MEAN_ELEMENT_THEORY = SGP/SGP4

EPOCH          = 2025-11-25T17:36:03.399552
MEAN_MOTION    = 13.41799744
ECCENTRICITY   = .00425899
INCLINATION    = 100.3051
RA_OF_ASC_NODE = 143.0982
ARG_OF_PERICENTER = 342.1092
MEAN_ANOMALY   = 17.8534

EPHEMERIS_TYPE = 0
CLASSIFICATION_TYPE = U
NORAD_CAT_ID   = 270330
ELEMENT_SET_NO = 999
REV_AT_EPOCH   = 24519
BSTAR          = .37400819E-2
MEAN_MOTION_DOT = .2058E-4
MEAN_MOTION_DDOT = 0

CCSDS_OMM_VERS = 2.0
CREATION_DATE  = 
ORIGINATOR     = 

OBJECT_NAME    = UNKNOWN
OBJECT_ID      = 
CENTER_NAME    = EARTH
REF_FRAME      = TEME
TIME_SYSTEM    = UTC
MEAN_ELEMENT_THEORY = SGP/SGP4

EPOCH          = 2025-11-18T03:28:13.370880
MEAN_MOTION    = 14.27966233
ECCENTRICITY   = .02097816
INCLINATION    = 97.7201
RA_OF_ASC_NODE = 98.0057
ARG_OF_PERICENTER = 350.5233
MEAN_ANOMALY   = 9.2019

EPHEMERIS_TYPE = 0
CLASSIFICATION_TYPE = U
NORAD_CAT_ID   = 270333
ELEMENT_SET_NO = 999
REV_AT_EPOCH   = 4410
BSTAR          = .15214386E-2
MEAN_MOTION_DOT = .4733E-4
MEAN_MOTION_DDOT = 0

CCSDS_OMM_VERS = 2.0
CREATION_DATE  = 
ORIGINATOR     = 

OBJECT_NAME    = UNKNOWN
OBJECT_ID      = 
CENTER_NAME    = EARTH
REF_FRAME      = TEME
TIME_SYSTEM    = UTC
MEAN_ELEMENT_THEORY = SGP/SGP4

EPOCH          = 2025-11-09T06:42:21.136320
MEAN_MOTION    = 14.13905719
ECCENTRICITY   = .01832657
INCLINATION    = 86.4565
RA_OF_ASC_NODE = 311.2079
ARG_OF_PERICENTER = 293.1389
MEAN_ANOMALY   = 65.0576

EPHEMERIS_TYPE = 0
CLASSIFICATION_TYPE = U
NORAD_CAT_ID   = 270334
ELEMENT_SET_NO = 999
REV_AT_EPOCH   = 27692
BSTAR          = .57140189E-2
MEAN_MOTION_DOT = .1275E-3
MEAN_MOTION_DDOT = 0

CCSDS_OMM_VERS = 2.0
CREATION_DATE  = 
ORIGINATOR     = 

OBJECT_NAME    = UNKNOWN
OBJECT_ID      = 
CENTER_NAME    = EARTH
REF_FRAME      = TEME
TIME_SYSTEM    = UTC
MEAN_ELEMENT_THEORY = SGP/SGP4

EPOCH          = 2025-11-19T13:53:31.941888
MEAN_MOTION    = 14.14522815
ECCENTRICITY   = .00713674
INCLINATION    = 66.6609
RA_OF_ASC_NODE = 262.2159
ARG_OF_PERICENTER = 84.9911
MEAN_ANOMALY   = 275.9321

EPHEMERIS_TYPE = 0
CLASSIFICATION_TYPE = U
NORAD_CAT_ID   = 270335
ELEMENT_SET_NO = 999
REV_AT_EPOCH   = 23389
BSTAR          = .51967917E-3
MEAN_MOTION_DOT = .941E-5
MEAN_MOTION_DDOT = 0

CCSDS_OMM_VERS = 2.0
CREATION_DATE  = 
ORIGINATOR     = 

OBJECT_NAME    = UNKNOWN
OBJECT_ID      = 
CENTER_NAME    = EARTH
REF_FRAME      = TEME
TIME_SYSTEM    = UTC
MEAN_ELEMENT_THEORY = SGP/SGP4

EPOCH          = 2025-11-19T22:51:27.611424
MEAN_MOTION    = 14.25503749
ECCENTRICITY   = .001142
INCLINATION    = 81.2873
RA_OF_ASC_NODE = 210.3883
ARG_OF_PERICENTER = 6.0386
MEAN_ANOMALY   = 354.0929

EPHEMERIS_TYPE = 0
CLASSIFICATION_TYPE = U
NORAD_CAT_ID   = 270336
ELEMENT_SET_NO = 999
REV_AT_EPOCH   = 23220
BSTAR          = .13113311E-2
MEAN_MOTION_DOT = .3113E-4
MEAN_MOTION_DDOT = 0

CCSDS_OMM_VERS = 2.0
CREATION_DATE  = 
ORIGINATOR     = 

OBJECT_NAME    = UNKNOWN
OBJECT_ID      = 
CENTER_NAME    = EARTH
REF_FRAME      = TEME
TIME_SYSTEM    = UTC
MEAN_ELEMENT_THEORY = SGP/SGP4

EPOCH          = 2025-11-15T03:57:10.801440
MEAN_MOTION    = 13.84025289
ECCENTRICITY   = .01461089
INCLINATION    = 99.0885
RA_OF_ASC_NODE = 277.5875
ARG_OF_PERICENTER = 248.1117
MEAN_ANOMALY   = 110.4448

EPHEMERIS_TYPE = 0
CLASSIFICATION_TYPE = U
NORAD_CAT_ID   = 270338
ELEMENT_SET_NO = 999
REV_AT_EPOCH   = 22328
BSTAR          = .12681163E-2
MEAN_MOTION_DOT = .1488E-4
MEAN_MOTION_DDOT = 0

CCSDS_OMM_VERS = 2.0
CREATION_DATE  = 
ORIGINATOR     = 

OBJECT_NAME    = UNKNOWN
OBJECT_ID      = 
CENTER_NAME    = EARTH
REF_FRAME      = TEME
TIME_SYSTEM    = UTC
MEAN_ELEMENT_THEORY = SGP/SGP4

EPOCH          = 2025-11-16T05:25:48.393984
MEAN_MOTION    = 12.16141245
ECCENTRICITY   = .08550373
INCLINATION    = 83.2293
RA_OF_ASC_NODE = 294.4577
ARG_OF_PERICENTER = 323.7255
MEAN_ANOMALY   = 30.8625

EPHEMERIS_TYPE = 0
CLASSIFICATION_TYPE = U
NORAD_CAT_ID   = 270339
ELEMENT_SET_NO = 999
REV_AT_EPOCH   = 19902
BSTAR          = .49435874E-2
MEAN_MOTION_DOT = .1547E-4
MEAN_MOTION_DDOT = 0

CCSDS_OMM_VERS = 2.0
CREATION_DATE  = 
ORIGINATOR     = 

OBJECT_NAME    = UNKNOWN
OBJECT_ID      = 
CENTER_NAME    = EARTH
REF_FRAME      = TEME
TIME_SYSTEM    = UTC
MEAN_ELEMENT_THEORY = SGP/SGP4

EPOCH          = 2025-11-24T22:40:46.392960
MEAN_MOTION    = 13.83749467
ECCENTRICITY   = .01451572
INCLINATION    = 98.8126
RA_OF_ASC_NODE = 207.5058
ARG_OF_PERICENTER = 172.9547
MEAN_ANOMALY   = 187.3696

EPHEMERIS_TYPE = 0
CLASSIFICATION_TYPE = U
NORAD_CAT_ID   = 270340
ELEMENT_SET_NO = 999
REV_AT_EPOCH   = 22528
BSTAR          = .71926828E-3
MEAN_MOTION_DOT = .823E-5
MEAN_MOTION_DDOT = 0

CCSDS_OMM_VERS = 2.0
CREATION_DATE  = 
ORIGINATOR     = 

OBJECT_NAME    = UNKNOWN
OBJECT_ID      = 
CENTER_NAME    = EARTH
REF_FRAME      = TEME
TIME_SYSTEM    = UTC
MEAN_ELEMENT_THEORY = SGP/SGP4

EPOCH          = 2025-11-02T12:15:25.972128
MEAN_MOTION    = 12.01773243
ECCENTRICITY   = .0905533
INCLINATION    = 83.2250
RA_OF_ASC_NODE = 313.6560
ARG_OF_PERICENTER = 148.4170
MEAN_ANOMALY   = 217.4667

EPHEMERIS_TYPE = 0
CLASSIFICATION_TYPE = U
NORAD_CAT_ID   = 270341
ELEMENT_SET_NO = 999
REV_AT_EPOCH   = 18488
BSTAR          = -.31220904E-2
MEAN_MOTION_DOT = -.853E-5
MEAN_MOTION_DDOT = 0

CCSDS_OMM_VERS = 2.0
CREATION_DATE  = 
ORIGINATOR     = 

OBJECT_NAME    = UNKNOWN
OBJECT_ID      = 
CENTER_NAME    = EARTH
REF_FRAME      = TEME
TIME_SYSTEM    = UTC
MEAN_ELEMENT_THEORY = SGP/SGP4

EPOCH          = 2025-11-26T00:23:20.275296
MEAN_MOTION    = 14.20479933
ECCENTRICITY   = .01033579
INCLINATION    = 98.6810
RA_OF_ASC_NODE = 236.6126
ARG_OF_PERICENTER = 330.7574
MEAN_ANOMALY   = 28.7842

EPHEMERIS_TYPE = 0
CLASSIFICATION_TYPE = U
NORAD_CAT_ID   = 270342
ELEMENT_SET_NO = 999
REV_AT_EPOCH   = 22021
BSTAR          = .35783881E-2
MEAN_MOTION_DOT = .8069E-4
MEAN_MOTION_DDOT = 0

CCSDS_OMM_VERS = 2.0
CREATION_DATE  = 
ORIGINATOR     = 

OBJECT_NAME    = UNKNOWN
OBJECT_ID      = 
CENTER_NAME    = EARTH
REF_FRAME      = TEME
TIME_SYSTEM    = UTC
MEAN_ELEMENT_THEORY = SGP/SGP4

EPOCH          = 2025-11-25T12:54:37.909728
MEAN_MOTION    = 13.06533890
ECCENTRICITY   = .02659477
INCLINATION    = 105.8389
RA_OF_ASC_NODE = 63.8448
ARG_OF_PERICENTER = 141.5052
MEAN_ANOMALY   = 220.5330

EPHEMERIS_TYPE = 0
CLASSIFICATION_TYPE = U
NORAD_CAT_ID   = 270344
ELEMENT_SET_NO = 999
REV_AT_EPOCH   = 19984
BSTAR          = -.33903784E-3
MEAN_MOTION_DOT = -.213E-5
MEAN_MOTION_DDOT = 0

